[
    {
        "Altitude(m)": 607886.6775816323,
        "Argument of Periapsis(deg)": 0.0,
        "Eccentricity": 0.0,
        "Inclination(deg)": 60.0,
        "Latitude(deg)": 40.99840609373503,
        "Longitude(deg)": -35.02712216014182,
        "Mean Anomaly(deg)": 49.09089999999999,
        "RAAN(deg)": 35.0,
        "Satellite Name": "Test1 157",
        "Satellite Number": 157,
        "Semi-Major Axis(m)": 6980739.136638005,
        "Time(s)": 0
    },
    {
        "Altitude(m)": 607987.5919773743,
        "Argument of Periapsis(deg)": 0.00010418945913296404,
        "Eccentricity": 0.0,
        "Inclination(deg)": 60.0,
        "Latitude(deg)": 41.463497211885496,
        "Longitude(deg)": -34.522896253810885,
        "Mean Anomaly(deg)": 49.71100614546182,
        "RAAN(deg)": 34.99957995086025,
        "Satellite Name": "Test1 157",
        "Satellite Number": 157,
        "Semi-Major Axis(m)": 6980739.136638005,
        "Time(s)": 10
    }
]